[{"OBJECT_NAME":"KUZGTU 1 (RS47S)","OBJECT_ID":"2023-091AV","EPOCH":"2026-03-09T22:22:51.965760","MEAN_MOTION":15.27481352,"ECCENTRICITY":0.0012896,"INCLINATION":97.5178,"RA_OF_ASC_NODE":132.5224,"ARG_OF_PERICENTER":89.3666,"MEAN_ANOMALY":270.9051,"EPHEMERIS_TYPE":0,"CLASSIFICATION_TYPE":"U","NORAD_CAT_ID":57217,"ELEMENT_SET_NO":999,"REV_AT_EPOCH":14921,"BSTAR":0.00057711473,"MEAN_MOTION_DOT":0.00015496,"MEAN_MOTION_DDOT":0},{"OBJECT_NAME":"STARLINK-32114","OBJECT_ID":"2024-132K","EPOCH":"2026-03-09T22:27:23.080320","MEAN_MOTION":15.30189887,"ECCENTRICITY":0.00012602,"INCLINATION":53.161,"RA_OF_ASC_NODE":51.5983,"ARG_OF_PERICENTER":90.0638,"MEAN_ANOMALY":270.0508,"EPHEMERIS_TYPE":0,"CLASSIFICATION_TYPE":"U","NORAD_CAT_ID":60287,"ELEMENT_SET_NO":999,"REV_AT_EPOCH":9159,"BSTAR":-2.22576e-6,"MEAN_MOTION_DOT":-4.25e-6,"MEAN_MOTION_DDOT":0}]
